1 65616U 25208A   26005.53262344  .00012388  00000+0  23158-3 0  9996
2 65616  51.6326  24.6699 0007562 343.7680  16.3066 15.49114570   229
1 65729U 98067XH  26005.25607600  .00356045  00000+0  15848-2 0  9998
2 65729  51.6226  14.5241 0008650  52.9557 307.2235 15.82735395 16874
1 65731U 98067XK  26005.43946464  .00154863  00000+0  11738-2 0  9993
2 65731  51.6284  16.5460 0005192  29.2258 330.9029 15.71346613 16861
1 65732U 98067XL  26005.26086524  .00225689  00000+0  13692-2 0  9993
2 65732  51.6254  16.0815 0006449  34.8932 325.2490 15.76291933 16863
1 65733U 98067XM  26005.26759737  .00529026  11769-3  17284-2 0  9998
2 65733  51.6256  13.1042 0009396  58.5879 301.6044 15.89985351 16909
1 65941U 98067XN  26005.46108388  .00104506  00000+0  11065-2 0  9996
2 65941  51.6289  20.4464 0003782  57.6045 302.5315 15.63308997 13560
1 65942U 98067XP  26005.27220087  .00168177  00000+0  14036-2 0  9992
2 65942  51.6277  19.9288 0004507  48.4983 311.6401 15.68988816 13555
1 65943U 98067XQ  26005.33313382  .00100451  00000+0  10653-2 0  9993
2 65943  51.6303  21.0978 0002309  51.2346 308.8854 15.63289724 13545
1 66052U 98067XR  26005.42961506  .00041695  00000+0  59203-3 0  9991
2 66052  51.6306  23.2345 0001361 314.3370  45.7510 15.55989869 12520
1 66174U 25241A   26005.53262344  .00012388  00000+0  23158-3 0  9993
2 66174  51.6326  24.6699 0007562 343.7680  16.3066 15.49114570   511
1 66515U 25246C   26004.98707992  .00031246  00000+0  32469-3 0  9997
2 66515  41.4747 234.0941 0001852  45.0993 314.9997 15.63935128  8082
1 66645U 25272A   26005.66276822  .00017089  00000+0  20692-3 0  9993
2 66645  41.4649 231.3621 0010833 226.1462 133.8482 15.60206666267498
